{
    "links": {
        "self": "http://www.neowsapp.com/rest/v1/neo/3602504?api_key=iIulBulltgU6a56xZRHN4H3l9WmuAYTsLGpBGhQ2"
    },
    "id": "3602504",
    "neo_reference_id": "3602504",
    "name": "(2012 GC2)",
    "designation": "2012 GC2",
    "nasa_jpl_url": "http://ssd.jpl.nasa.gov/sbdb.cgi?sstr=3602504",
    "absolute_magnitude_h": 23.1,
    "estimated_diameter": {
        "kilometers": {
            "estimated_diameter_min": 0.063760979,
            "estimated_diameter_max": 0.1425738833
        },
        "meters": {
            "estimated_diameter_min": 63.7609789875,
            "estimated_diameter_max": 142.5738833281
        },
        "miles": {
            "estimated_diameter_min": 0.0396192233,
            "estimated_diameter_max": 0.0885912765
        },
        "feet": {
            "estimated_diameter_min": 209.1895703015,
            "estimated_diameter_max": 467.7620993781
        }
    },
    "is_potentially_hazardous_asteroid": false,
    "close_approach_data": [
        {
            "close_approach_date": "1903-04-27",
            "close_approach_date_full": "1903-Apr-27 03:43",
            "epoch_date_close_approach": -2104345020000,
            "relative_velocity": {
                "kilometers_per_second": "10.7600402519",
                "kilometers_per_hour": "38736.1449069397",
                "miles_per_hour": "24069.1340395371"
            },
            "miss_distance": {
                "astronomical": "0.0697457857",
                "lunar": "27.1311106373",
                "kilometers": "10433820.982196459",
                "miles": "6483275.7248467742"
            },
            "orbiting_body": "Earth"
        },
        {
            "close_approach_date": "2005-04-12",
            "close_approach_date_full": "2005-Apr-12 03:53",
            "epoch_date_close_approach": 1113277980000,
            "relative_velocity": {
                "kilometers_per_second": "17.1137533284",
                "kilometers_per_hour": "61609.5119821781",
                "miles_per_hour": "38281.7548202595"
            },
            "miss_distance": {
                "astronomical": "0.1998683057",
                "lunar": "77.7487709173",
                "kilometers": "29899872.813228859",
                "miles": "18578919.4501978942"
            },
            "orbiting_body": "Earth"
        },
        {
            "close_approach_date": "2012-04-23",
            "close_approach_date_full": "2012-Apr-23 10:36",
            "epoch_date_close_approach": 1335177360000,
            "relative_velocity": {
                "kilometers_per_second": "11.8276747211",
                "kilometers_per_hour": "42579.6289960097",
                "miles_per_hour": "26457.3255836595"
            },
            "miss_distance": {
                "astronomical": "0.0465367136",
                "lunar": "18.1027815904",
                "kilometers": "6961793.231360032",
                "miles": "4325857.7212791616"
            },
            "orbiting_body": "Earth"
        }
    ],
    "orbital_data": {
        "orbit_id": "15",
        "orbit_determination_date": "2017-04-06 08:50:11",
        "first_observation_date": "2012-04-12",
        "last_observation_date": "2012-04-21",
        "data_arc_in_days": 9,
        "observations_used": 106,
        "orbit_uncertainty": "7",
        "minimum_orbit_intersection": ".0456242",
        "jupiter_tisserand_invariant": "4.520",
        "epoch_osculation": "2459000.5",
        "eccentricity": ".3953756111629811",
        "semi_major_axis": "1.456766220358088",
        "inclination": "12.68585790927271",
        "ascending_node_longitude": "203.3032447928541",
        "orbital_period": "642.2191043111764",
        "perihelion_distance": ".880796385662423",
        "perihelion_argument": "70.70386308421247",
        "aphelion_distance": "2.032736055053753",
        "perihelion_time": "2459299.990954318678",
        "mean_anomaly": "192.1184423961278",
        "mean_motion": ".5605563546511505",
        "equinox": "J2000",
        "orbit_class": {
            "orbit_class_type": "APO",
            "orbit_class_description": "Near-Earth asteroid orbits which cross the Earth’s orbit similar to that of 1862 Apollo",
            "orbit_class_range": "a (semi-major axis) > 1.0 AU; q (perihelion) < 1.017 AU"
        }
    },
    "is_sentry_object": false
}